HYPERFIELD-1A           
1 60562U 24149CY  26068.76488211  .00008569  00000+0  30052-3 0  9998
2 60562  97.3842 149.5066 0003865 313.7844  46.3076 15.29681349 86836
STARLINK-34638          
1 64762U 25147H   26068.70754169  .00014479  00000+0  50005-3 0  9992
2 64762  53.1573 242.7272 0000828  99.8227 260.2867 15.30198319 38756
